ORBCOMM FM103           
1 40091U 14040F   24219.56403549  .00001429  00000+0  35319-3 0  9996
2 40091  47.0064  62.3395 0002349 268.9282  91.1334 14.56832287518203
ORBCOMM FM114           
1 41179U 15081A   24219.73111107  .00002324  00000+0  55061-3 0  9996
2 41179  47.0036 330.7721 0002273 310.3394  49.7292 14.56854880458643
ORBCOMM FM119           
1 41180U 15081B   24219.56871396  .00001156  00000+0  29295-3 0  9994
2 41180  46.9995 240.7618 0001202 357.6366   2.4513 14.56811547459822
ORBCOMM FM105           
1 41181U 15081C   24219.32302479  .00000611  00000+0  22048-3 0  9994
2 41181  47.0000 216.9064 0002346 327.9299  32.1438 14.44511685455219
ORBCOMM FM110           
1 41182U 15081D   24219.77721268  .00002463  00000+0  58054-3 0  9998
2 41182  47.0025 329.9584 0002031 195.9318 164.1503 14.56915388458656
ORBCOMM FM118           
1 41183U 15081E   24219.61776241  .00002004  00000+0  47932-3 0  9997
2 41183  47.0048 331.0378 0002163 188.5586 171.5263 14.56909892458555
ORBCOMM FM112           
1 41184U 15081F   24219.47699755  .00001149  00000+0  29153-3 0  9990
2 41184  46.9979 240.3936 0001951 344.7671  15.3155 14.56787118459757
ORBCOMM FM113           
1 41185U 15081G   24219.45422030  .00001386  00000+0  34374-3 0  9993
2 41185  46.9993 240.7825 0001461 348.5914  11.4937 14.56793939459734
